{
  "norad_id": 27718,
  "name": "ASIASAT 4",
  "history": [
    {
      "epoch": "2026-03-28T17:44:51.657792Z",
      "apogee_km": 35798.05986466343,
      "perigee_km": 35775.564021103426,
      "latitude_deg": 1.3192658028082216,
      "longitude_deg": 147.5938971399021,
      "height_km": 35793.94031856132,
      "semi_major_axis_km": 42164.948942883435,
      "eccentricity": 0.00026676,
      "inclination_deg": 4.499,
      "raan_deg": 76.7428,
      "arg_perigee_deg": 296.9125,
      "mean_anomaly_deg": 226.2622,
      "mean_motion_rev_day": 1.00271011
    },
    {
      "epoch": "2026-03-28T20:09:38.534112Z",
      "apogee_km": 35798.060409053985,
      "perigee_km": 35775.578054391226,
      "latitude_deg": -1.4764613184821458,
      "longitude_deg": 147.48141533694178,
      "height_km": 35787.98790362618,
      "semi_major_axis_km": 42164.95623172261,
      "eccentricity": 0.0002666,
      "inclination_deg": 4.4992,
      "raan_deg": 76.7414,
      "arg_perigee_deg": 297.0462,
      "mean_anomaly_deg": 262.4241,
      "mean_motion_rev_day": 1.00270985
    },
    {
      "epoch": "2026-03-29T18:58:51.915360Z",
      "apogee_km": 35798.12911081189,
      "perigee_km": 35775.646719527125,
      "latitude_deg": -0.19121545532639378,
      "longitude_deg": 147.52746064300206,
      "height_km": 35791.24391304765,
      "semi_major_axis_km": 42165.02491516951,
      "eccentricity": 0.0002666,
      "inclination_deg": 4.5017,
      "raan_deg": 76.7287,
      "arg_perigee_deg": 298.1879,
      "mean_anomaly_deg": 244.5352,
      "mean_motion_rev_day": 1.0027074
    }
  ]
}